NORAD_CAT_ID,OBJECT_NAME,OBJECT_TYPE,EPOCH,MEAN_MOTION,ECCENTRICITY,INCLINATION,RA_OF_ASC_NODE,ARG_OF_PERICENTER,MEAN_ANOMALY,BSTAR,MEAN_MOTION_DOT,MEAN_MOTION_DDOT,TLE_LINE0,TLE_LINE1,TLE_LINE2,SEMIMAJOR_AXIS,PERIOD,APOGEE,PERIGEE,DECAYED
54091.0,STARLINK-5221,PAYLOAD,2023-07-15 23:07:13,15.0884308,0.0001162,53.218,358.1727,76.798,283.3142,0.00013989,1.939e-05,0.0,0 STARLINK-5221,1 54091U 22136AS  23196.96334978  .00001939  00000-0  13989-3 0  9998,2 54091  53.2180 358.1727 0001162  76.7980 283.3142 15.08843080 41364,6917.871,95.437,540.54,538.932,0.0
54091.0,STARLINK-5221,PAYLOAD,2023-07-17 19:38:00,15.08855794,0.0001115,53.2182,349.8447,97.9596,262.1523,0.00030594,4.587e-05,0.0,0 STARLINK-5221,1 54091U 22136AS  23198.81806482  .00004587  00000-0  30594-3 0  9991,2 54091  53.2182 349.8447 0001115  97.9596 262.1523 15.08855794 41642,6917.832,95.437,540.468,538.926,0.0
54091.0,STARLINK-5221,PAYLOAD,2023-07-18 14:42:38,15.08842824,0.0001261,53.218,346.2779,60.9576,299.1543,3.7969e-05,3.16e-06,0.0,0 STARLINK-5221,1 54091U 22136AS  23199.61294967  .00000316  00000-0  37969-4 0  9999,2 54091  53.2180 346.2779 0001261  60.9576 299.1543 15.08842824 41764,6917.872,95.437,540.609,538.864,0.0
54091.0,STARLINK-5221,PAYLOAD,2023-07-18 21:04:10,15.08856952,0.000115,53.2178,345.0873,92.7788,267.3335,0.00040906,6.231e-05,0.0,0 STARLINK-5221,1 54091U 22136AS  23199.87790221  .00006231  00000-0  40906-3 0  9997,2 54091  53.2178 345.0873 0001150  92.7788 267.3335 15.08856952 41806,6917.829,95.436,540.489,538.898,0.0
54091.0,STARLINK-5221,PAYLOAD,2023-07-19 19:19:35,15.08828209,0.0001177,53.2182,340.9236,101.036,259.0764,0.00017624,2.517e-05,0.0,0 STARLINK-5221,1 54091U 22136AS  23200.80527680  .00002517  00000-0  17624-3 0  9994,2 54091  53.2182 340.9236 0001177 101.0360 259.0764 15.08828209 41940,6917.916,95.438,540.596,538.967,0.0
54091.0,STARLINK-5221,PAYLOAD,2023-07-20 12:48:50,15.08846114,0.0001121,53.2183,337.6552,96.0251,264.0869,0.00078471,0.00012225,0.0,0 STARLINK-5221,1 54091U 22136AS  23201.53391840  .00012225  00000-0  78471-3 0  9996,2 54091  53.2183 337.6552 0001121  96.0251 264.0869 15.08846114 42056,6917.862,95.437,540.502,538.951,0.0
54091.0,STARLINK-5221,PAYLOAD,2023-07-21 09:28:50,15.08852416,0.0001172,53.2183,333.7898,95.2066,264.906,0.00041484,6.323e-05,0.0,0 STARLINK-5221,1 54091U 22136AS  23202.39503385  .00006323  00000-0  41484-3 0  9996,2 54091  53.2183 333.7898 0001172  95.2066 264.9060 15.08852416 42185,6917.842,95.437,540.518,538.897,0.0
54091.0,STARLINK-5221,PAYLOAD,2023-07-24 09:01:12,15.08843523,0.0001293,53.2187,320.4105,87.9146,272.1994,0.00026067,3.863e-05,0.0,0 STARLINK-5221,1 54091U 22136AS  23205.37583910  .00003863  00000-0  26067-3 0  9995,2 54091  53.2187 320.4105 0001293  87.9146 272.1994 15.08843523 42168,6917.87,95.437,540.629,538.84,0.0
54091.0,STARLINK-5221,PAYLOAD,2023-07-25 12:02:45,15.08843024,0.0001239,53.2162,315.352,106.5371,253.5757,0.00012231,1.659e-05,0.0,0 STARLINK-5221,1 54091U 22136AS  23206.50191789  .00001659  00000-0  12231-3 0  9999,2 54091  53.2162 315.3520 0001239 106.5371 253.5757 15.08843024 42338,6917.871,95.437,540.593,538.879,0.0
54091.0,STARLINK-5221,PAYLOAD,2023-07-26 07:07:23,15.08843755,0.0001049,53.2175,311.7849,97.9868,262.1243,0.00015163,2.126e-05,0.0,0 STARLINK-5221,1 54091U 22136AS  23207.29679853  .00002126  00000-0  15163-3 0  9996,2 54091  53.2175 311.7849 0001049  97.9868 262.1243 15.08843755 42459,6917.869,95.437,540.46,539.008,0.0
54091.0,STARLINK-5221,PAYLOAD,2023-07-27 06:58:10,15.08843067,9.91e-05,53.2167,307.325,86.7236,273.387,0.00015524,2.184e-05,0.0,0 STARLINK-5221,1 54091U 22136AS  23208.29039730  .00002184  00000-0  15524-3 0  9996,2 54091  53.2167 307.3250 0000991  86.7236 273.3870 15.08843067 42600,6917.871,95.437,540.422,539.05,0.0
54091.0,STARLINK-5221,PAYLOAD,2023-07-28 05:13:33,15.08847092,0.0001444,53.2163,303.1625,93.3153,266.8004,-3.1287e-05,-7.86e-06,0.0,0 STARLINK-5221,1 54091U 22136AS  23209.21775409 -.00000786  00000-0 -31287-4 0  9992,2 54091  53.2163 303.1625 0001444  93.3153 266.8004 15.08847092 42745,6917.859,95.437,540.723,538.725,0.0
54091.0,STARLINK-5221,PAYLOAD,2023-07-28 14:45:53,15.0884267,0.0001167,53.2179,301.3799,81.6397,278.4727,4.6465e-05,4.52e-06,0.0,0 STARLINK-5221,1 54091U 22136AS  23209.61519684  .00000452  00000-0  46465-4 0  9999,2 54091  53.2179 301.3799 0001167  81.6397 278.4727 15.08842670 43273,6917.872,95.437,540.545,538.93,0.0
54091.0,STARLINK-5221,PAYLOAD,2023-07-29 09:50:31,15.08832964,0.00011,53.2175,297.8089,90.5623,269.5495,8.1173e-05,1.004e-05,0.0,0 STARLINK-5221,1 54091U 22136AS  23210.41008467  .00001004  00000-0  81173-4 0  9990,2 54091  53.2175 297.8089 0001100  90.5623 269.5495 15.08832964 43399,6917.902,95.438,540.528,539.006,0.0
54091.0,STARLINK-5221,PAYLOAD,2023-07-30 14:27:27,15.0884092,0.0001006,53.2172,292.4576,84.2914,275.8193,9.9836e-05,1.302e-05,0.0,0 STARLINK-5221,1 54091U 22136AS  23211.60240456  .00001302  00000-0  99836-4 0  9994,2 54091  53.2172 292.4576 0001006  84.2914 275.8193 15.08840920 43572,6917.878,95.437,540.439,539.047,0.0
54091.0,STARLINK-5221,PAYLOAD,2023-08-01 12:33:38,15.08841943,0.0001191,53.2165,283.833,81.5473,278.5654,8.0296e-05,9.9e-06,0.0,0 STARLINK-5221,1 54091U 22136AS  23213.52336504  .00000990  00000-0  80296-4 0  9999,2 54091  53.2165 283.8330 0001191  81.5473 278.5654 15.08841943 43861,6917.874,95.437,540.563,538.916,0.0
54091.0,STARLINK-5221,PAYLOAD,2023-08-03 10:39:49,15.08844724,0.0001157,53.2167,275.2073,95.1927,264.9197,0.00012261,1.664e-05,0.0,0 STARLINK-5221,1 54091U 22136AS  23215.44432128  .00001664  00000-0  12261-3 0  9996,2 54091  53.2167 275.2073 0001157  95.1927 264.9197 15.08844724 44153,6917.866,95.437,540.531,538.931,0.0
54091.0,STARLINK-5221,PAYLOAD,2023-08-04 10:30:37,15.08833864,0.0001214,53.2167,270.7464,105.0473,255.0653,8.5753e-06,-1.51e-06,0.0,0 STARLINK-5221,1 54091U 22136AS  23216.43793177 -.00000151  00000-0  85753-5 0  9999,2 54091  53.2167 270.7464 0001214 105.0473 255.0653 15.08833864 44306,6917.899,95.438,540.604,538.924,0.0
54091.0,STARLINK-5221,PAYLOAD,2023-08-05 08:46:00,15.0884984,0.0001132,53.2151,266.5851,97.7017,262.4104,0.00017374,2.479e-05,0.0,0 STARLINK-5221,1 54091U 22136AS  23217.36528283  .00002479  00000-0  17374-3 0  9992,2 54091  53.2151 266.5851 0001132  97.7017 262.4104 15.08849840 44441,6917.85,95.437,540.498,538.932,0.0
54091.0,STARLINK-5221,PAYLOAD,2023-08-06 02:15:15,15.08838172,0.0001526,53.2153,263.3116,129.5064,230.6063,0.0001557,2.191e-05,0.0,0 STARLINK-5221,1 54091U 22136AS  23218.09392825  .00002191  00000-0  15570-3 0  9991,2 54091  53.2153 263.3116 0001526 129.5064 230.6063 15.08838172 44554,6917.886,95.438,540.807,538.695,0.0
54091.0,STARLINK-5221,PAYLOAD,2023-08-06 19:44:30,15.08835541,0.0001099,53.2154,260.043,97.3083,262.8034,4.1864e-06,-2.21e-06,0.0,0 STARLINK-5221,1 54091U 22136AS  23218.82257145 -.00000221  00000-0  41864-5 0  9997,2 54091  53.2154 260.0430 0001099  97.3083 262.8034 15.08835541 44660,6917.894,95.438,540.519,538.999,0.0
54091.0,STARLINK-5221,PAYLOAD,2023-08-08 01:56:49,15.08841279,0.0001085,53.2157,254.3929,96.2498,263.8618,0.0001618,2.288e-05,0.0,0 STARLINK-5221,1 54091U 22136AS  23220.08113217  .00002288  00000-0  16180-3 0  9994,2 54091  53.2157 254.3929 0001085  96.2498 263.8618 15.08841279 44850,6917.876,95.437,540.492,538.991,0.0
54091.0,STARLINK-5221,PAYLOAD,2023-08-08 19:26:04,15.08839409,0.0001248,53.2155,251.1229,83.6403,276.4731,0.00011467,1.538e-05,0.0,0 STARLINK-5221,1 54091U 22136AS  23220.80977439  .00001538  00000-0  11467-3 0  9998,2 54091  53.2155 251.1229 0001248  83.6403 276.4731 15.08839409 44963,6917.882,95.438,540.611,538.884,0.0
54091.0,STARLINK-5221,PAYLOAD,2023-08-09 08:09:10,15.08833104,0.0001065,53.2156,248.7435,92.2488,267.8626,8.3745e-05,1.045e-05,0.0,0 STARLINK-5221,1 54091U 22136AS  23221.33970074  .00001045  00000-0  83745-4 0  9997,2 54091  53.2156 248.7435 0001065  92.2488 267.8626 15.08833104 45044,6917.901,95.438,540.503,539.03,0.0
54091.0,STARLINK-5221,PAYLOAD,2023-08-10 11:10:42,15.08849913,0.0001063,53.2155,243.6881,84.3691,275.7422,6.9204e-05,8.14e-06,0.0,0 STARLINK-5221,1 54091U 22136AS  23222.46576942  .00000814  00000-0  69204-4 0  9995,2 54091  53.2155 243.6881 0001063  84.3691 275.7422 15.08849913 45214,6917.85,95.437,540.45,538.98,0.0
54091.0,STARLINK-5221,PAYLOAD,2023-08-11 07:50:43,15.08838742,0.000102,53.2156,239.8217,82.5928,277.518,0.00011178,1.492e-05,0.0,0 STARLINK-5221,1 54091U 22136AS  23223.32689529  .00001492  00000-0  11178-3 0  9996,2 54091  53.2156 239.8217 0001020  82.5928 277.5180 15.08838742 45344,6917.884,95.438,540.455,539.044,0.0
54091.0,STARLINK-5221,PAYLOAD,2023-08-12 10:52:17,15.08840273,0.00011,53.2157,234.7657,84.4126,275.6992,2.2443e-05,6.9e-07,0.0,0 STARLINK-5221,1 54091U 22136AS  23224.45297619  .00000069  00000-0  22443-4 0  9993,2 54091  53.2157 234.7657 0001100  84.4126 275.6992 15.08840273 45518,6917.88,95.438,540.506,538.984,0.0
54091.0,STARLINK-5221,PAYLOAD,2023-08-13 17:04:36,15.08838141,0.0001109,53.2152,229.1157,82.2048,277.907,3.7055e-05,3.02e-06,0.0,0 STARLINK-5221,1 54091U 22136AS  23225.71153789  .00000302  00000-0  37055-4 0  9997,2 54091  53.2152 229.1157 0001109  82.2048 277.9070 15.08838141 45708,6917.886,95.438,540.518,538.984,0.0
54091.0,STARLINK-5221,PAYLOAD,2023-08-14 23:16:56,15.08837235,0.000114,53.2152,223.4664,88.8721,271.2401,6.8194e-05,7.98e-06,0.0,0 STARLINK-5221,1 54091U 22136AS  23226.97010084  .00000798  00000-0  68194-4 0  9993,2 54091  53.2152 223.4664 0001140  88.8721 271.2401 15.08837235 45891,6917.889,95.438,540.542,538.965,0.0
54091.0,STARLINK-5221,PAYLOAD,2023-08-16 08:40:02,15.08843737,0.0001197,53.2162,217.2229,90.9547,269.1582,0.00010453,1.376e-05,0.0,0 STARLINK-5221,1 54091U 22136AS  23228.36113680  .00001376  00000-0  10453-3 0  9991,2 54091  53.2162 217.2229 0001197  90.9547 269.1582 15.08843737 46107,6917.869,95.437,540.562,538.906,0.0
